COSMOS 2425 (716)       
1 29670U 06062A   21060.56015913  .00000066  00000-0  00000+0 0  9998
2 29670  64.8742 259.0936 0024743 349.8009 184.2470  2.13113630110361
COSMOS 2433 (720)       
1 32275U 07052A   21062.66958206 -.00000044  00000-0  00000-0 0  9995
2 32275  66.0462  20.2977 0004733 272.1378 258.6621  2.13104248103930
COSMOS 2432 (719)       
1 32276U 07052B   21062.64940196 -.00000044  00000-0  00000+0 0  9992
2 32276  66.0573  20.3917 0012345 323.1222 141.7247  2.13103608103937
COSMOS 2434 (721)       
1 32393U 07065A   21062.60896359  .00000070  00000-0  00000-0 0  9992
2 32393  64.4856 257.5327 0004947  77.5932 294.7978  2.13103172102642
COSMOS 2436 (723)       
1 32395U 07065C   21062.88746497  .00000071  00000-0  00000-0 0  9992
2 32395  64.4999 257.5750 0016131   7.3111 354.8716  2.13102999102587
COSMOS 2456 (730)       
1 36111U 09070A   21062.83800662  .00000012  00000-0  00000+0 0  9994
2 36111  64.2588 137.2042 0004075 310.7660  49.2760  2.13099162 87315
COSMOS 2457 (733)       
1 36112U 09070B   21062.74587293  .00000013  00000-0  00000-0 0  9999
2 36112  64.2423 137.0942 0005288 170.6002 242.3000  2.13101400 87313
COSMOS 2459 (731)       
1 36400U 10007A   21062.38489877 -.00000045  00000-0  00000-0 0  9996
2 36400  65.9433  19.2452 0026788 345.5585 183.0945  2.13105140 85644
COSMOS 2461 (735)       
1 36401U 10007B   21062.38567367 -.00000045  00000-0  00000-0 0  9998
2 36401  65.9398  19.2097 0021088   0.7052 170.3413  2.13103868 85652
COSMOS 2460 (732)       
1 36402U 10007C   21062.29120500 -.00000045  00000-0  00000-0 0  9993
2 36402  65.9250  19.1743 0002498 304.0438  98.2816  2.13106626 85659
COSMOS 2464 (736)       
1 37139U 10041C   21062.68998757  .00000070  00000-0  00000-0 0  9996
2 37139  64.0890 256.8404 0029148  14.0360 282.2129  2.13100781 81715
COSMOS 2471 (701K)      
1 37372U 11009A   21061.38363275 -.00000043  00000-0  00000+0 0  9997
2 37372  65.9230  19.1435 0009684 237.7073 352.0271  2.13107731 77906
COSMOS 2476 (744)       
1 37867U 11064A   21062.44518403  .00000017  00000-0  00000-0 0  9991
2 37867  64.5552 138.3887 0020673 237.5852  82.5422  2.13101911 72649
COSMOS 2477 (745)       
1 37868U 11064B   21061.48164703  .00000028  00000-0  00000-0 0  9997
2 37868  64.5642 138.4814 0018146 238.3089 240.9993  2.13101698 72582
COSMOS 2475 (743)       
1 37869U 11064C   21062.29960546  .00000019  00000-0  00000-0 0  9997
2 37869  64.5702 138.4564 0022067 258.4357  85.9871  2.13101854 72609
COSMOS 2485 (747)       
1 39155U 13019A   21062.49669786  .00000017  00000-0  00000-0 0  9991
2 39155  64.7209 138.7140 0021078 232.8401 171.3053  2.13101861 61128
COSMOS 2492 (754)       
1 39620U 14012A   21062.65261260 -.00000046  00000-0  00000-0 0  9998
2 39620  65.8150  18.9078 0015561 321.1571 237.5097  2.13103315 54076
COSMOS 2500 (755)       
1 40001U 14032A   21062.74141113 -.00000047  00000-0  00000-0 0  9990
2 40001  65.7554  18.8013 0006516 226.5943 260.0758  2.13102578 52294
COSMOS 2501 (702K)      
1 40315U 14075A   21062.75309978  .00000069  00000-0  00000-0 0  9994
2 40315  63.8035 257.6849 0015387 207.0990  94.4921  2.13101333 48695
COSMOS 2514 (751)       
1 41330U 16008A   21062.57745384 -.00000047  00000-0  00000-0 0  9992
2 41330  65.5571  18.6143 0010290 227.6599 316.1729  2.13102994 39458
COSMOS 2516 (753)       
1 41554U 16032A   21062.19599213  .00000066  00000-0  00000-0 0  9993
2 41554  64.0277 257.8477 0011116 213.9046 290.2297  2.13106813 37053
COSMOS 2522 (752)       
1 42939U 17055A   21062.67045403  .00000069  00000-0  00000-0 0  9990
2 42939  64.2631 258.0869 0005065 250.4631 122.7117  2.13102059 26828
COSMOS 2527 (756)       
1 43508U 18053A   21062.58094894  .00000016  00000-0  00000-0 0  9992
2 43508  64.8857 138.6126 0007923 230.8534 105.6652  2.13102611 21109
COSMOS 2529 (757)       
1 43687U 18086A   21062.65971330  .00000069  00000-0  00000-0 0  9991
2 43687  64.4743 258.2777 0007784 280.5006  39.9855  2.13102143 18121
COSMOS 2534 (758)       
1 44299U 19030A   21062.56594799  .00000069  00000-0  00000-0 0  9991
2 44299  64.5443 258.1231 0011317 300.1509  83.2804  2.13101951 13775
COSMOS 2544 (759)       
1 44850U 19088A   21062.65547140  .00000015  00000-0  00000-0 0  9996
2 44850  64.8701 138.4724 0012117 262.9423 174.5985  2.13102409  9558
COSMOS 2545 (760)       
1 45358U 20018A   21062.72398508 -.00000047  00000-0  00000-0 0  9991
2 45358  64.8876  19.6051 0010473 260.7151  79.5406  2.13102820  7495
